STARLINK-35974          
1 66862U 25281Q   25352.25003472 -.00109729  00000+0 -71787-3 0  9998
2 66862  43.0009  88.4636 0001965 264.8145  50.2692 15.75121440  2187
STARLINK-36134          
1 66863U 25281R   25352.25003472 -.00048445  00000+0 -31381-3 0  9992
2 66863  43.0006  88.4536 0001481 256.4015  62.5699 15.75058183  2287
STARLINK-36070          
1 66864U 25281S   25352.25003472 -.00042369  00000+0 -27389-3 0  9995
2 66864  43.0008  88.4485 0001467 274.1986  46.6893 15.75055765  2317
STARLINK-36117          
1 66865U 25281T   25352.25003472 -.00023677  00000+0 -15140-3 0  9999
2 66865  43.0008  88.4393 0001782 259.1742  65.5456 15.75046962  2289
STARLINK-36126          
1 66866U 25281U   25352.25003472 -.00035108  00000+0 -22632-3 0  9996
2 66866  43.0006  88.4343 0001547 255.4044  71.2379 15.75046075  2313
STARLINK-36101          
1 66867U 25281V   25352.25003472  .00164316  00000+0  10542-2 0  9995
2 66867  43.0007  88.4303 0001529 283.9279  44.5913 15.74992995  2123
STARLINK-36108          
1 66868U 25281W   25352.25003472  .00045768  00000+0  29972-3 0  9993
2 66868  43.0005  88.4247 0001764 247.9664  82.5164 15.75016828  2121
STARLINK-36092          
1 66869U 25281X   25352.25003472 -.00102796  00000+0 -67176-3 0  9999
2 66869  43.0006  88.4195 0001947 279.6416  52.7110 15.75122009  2315
STARLINK-36114          
1 66870U 25281Y   25352.25003472 -.00020884  00000+0 -13312-3 0  9991
2 66870  43.0006  88.4143 0001984 265.8962  68.4014 15.75046985  2184
STARLINK-36095          
1 66871U 25281Z   25352.25003472  .00039226  00000+0  25729-3 0  9995
2 66871  43.0006  88.4092 0001432 273.9872  62.2270 15.75038459  2314
STARLINK-36082          
1 66872U 25281AA  25352.25003472 -.00101147  00000+0 -66198-3 0  9995
2 66872  43.0007  88.4042 0001409 266.8292  71.2888 15.75083318  2186
STARLINK-36128          
1 66873U 25281AB  25352.25003472 -.00066054  00000+0 -42942-3 0  9994
2 66873  43.0006  88.3893 0001840 258.2876  85.5750 15.75082565  2315
