CCSDS_OMM_VERS = 2.0
CREATION_DATE  = 
ORIGINATOR     = 

OBJECT_NAME    = STARLINK-35974
OBJECT_ID      = 2025-281Q
CENTER_NAME    = EARTH
REF_FRAME      = TEME
TIME_SYSTEM    = UTC
MEAN_ELEMENT_THEORY = SGP/SGP4

EPOCH          = 2025-12-18T06:00:02.999808
MEAN_MOTION    = 15.75121440
ECCENTRICITY   = .0001965
INCLINATION    = 43.0009
RA_OF_ASC_NODE = 88.4636
ARG_OF_PERICENTER = 264.8145
MEAN_ANOMALY   = 50.2692

EPHEMERIS_TYPE = 0
CLASSIFICATION_TYPE = U
NORAD_CAT_ID   = 66862
ELEMENT_SET_NO = 999
REV_AT_EPOCH   = 218
BSTAR          = -.71787409E-3
MEAN_MOTION_DOT = -.109729E-2
MEAN_MOTION_DDOT = 0

CCSDS_OMM_VERS = 2.0
CREATION_DATE  = 
ORIGINATOR     = 

OBJECT_NAME    = STARLINK-36134
OBJECT_ID      = 2025-281R
CENTER_NAME    = EARTH
REF_FRAME      = TEME
TIME_SYSTEM    = UTC
MEAN_ELEMENT_THEORY = SGP/SGP4

EPOCH          = 2025-12-18T06:00:02.999808
MEAN_MOTION    = 15.75058183
ECCENTRICITY   = .00014816
INCLINATION    = 43.0006
RA_OF_ASC_NODE = 88.4536
ARG_OF_PERICENTER = 256.4015
MEAN_ANOMALY   = 62.5699

EPHEMERIS_TYPE = 0
CLASSIFICATION_TYPE = U
NORAD_CAT_ID   = 66863
ELEMENT_SET_NO = 999
REV_AT_EPOCH   = 228
BSTAR          = -.3138069E-3
MEAN_MOTION_DOT = -.48445E-3
MEAN_MOTION_DDOT = 0

CCSDS_OMM_VERS = 2.0
CREATION_DATE  = 
ORIGINATOR     = 

OBJECT_NAME    = STARLINK-36070
OBJECT_ID      = 2025-281S
CENTER_NAME    = EARTH
REF_FRAME      = TEME
TIME_SYSTEM    = UTC
MEAN_ELEMENT_THEORY = SGP/SGP4

EPOCH          = 2025-12-18T06:00:02.999808
MEAN_MOTION    = 15.75055765
ECCENTRICITY   = .00014673
INCLINATION    = 43.0008
RA_OF_ASC_NODE = 88.4485
ARG_OF_PERICENTER = 274.1986
MEAN_ANOMALY   = 46.6893

EPHEMERIS_TYPE = 0
CLASSIFICATION_TYPE = U
NORAD_CAT_ID   = 66864
ELEMENT_SET_NO = 999
REV_AT_EPOCH   = 231
BSTAR          = -.27389399E-3
MEAN_MOTION_DOT = -.42369E-3
MEAN_MOTION_DDOT = 0

CCSDS_OMM_VERS = 2.0
CREATION_DATE  = 
ORIGINATOR     = 

OBJECT_NAME    = STARLINK-36117
OBJECT_ID      = 2025-281T
CENTER_NAME    = EARTH
REF_FRAME      = TEME
TIME_SYSTEM    = UTC
MEAN_ELEMENT_THEORY = SGP/SGP4

EPOCH          = 2025-12-18T06:00:02.999808
MEAN_MOTION    = 15.75046962
ECCENTRICITY   = .00017828
INCLINATION    = 43.0008
RA_OF_ASC_NODE = 88.4393
ARG_OF_PERICENTER = 259.1742
MEAN_ANOMALY   = 65.5456

EPHEMERIS_TYPE = 0
CLASSIFICATION_TYPE = U
NORAD_CAT_ID   = 66865
ELEMENT_SET_NO = 999
REV_AT_EPOCH   = 228
BSTAR          = -.15139718E-3
MEAN_MOTION_DOT = -.23677E-3
MEAN_MOTION_DDOT = 0

CCSDS_OMM_VERS = 2.0
CREATION_DATE  = 
ORIGINATOR     = 

OBJECT_NAME    = STARLINK-36126
OBJECT_ID      = 2025-281U
CENTER_NAME    = EARTH
REF_FRAME      = TEME
TIME_SYSTEM    = UTC
MEAN_ELEMENT_THEORY = SGP/SGP4

EPOCH          = 2025-12-18T06:00:02.999808
MEAN_MOTION    = 15.75046075
ECCENTRICITY   = .00015478
INCLINATION    = 43.0006
RA_OF_ASC_NODE = 88.4343
ARG_OF_PERICENTER = 255.4044
MEAN_ANOMALY   = 71.2379

EPHEMERIS_TYPE = 0
CLASSIFICATION_TYPE = U
NORAD_CAT_ID   = 66866
ELEMENT_SET_NO = 999
REV_AT_EPOCH   = 231
BSTAR          = -.22631691E-3
MEAN_MOTION_DOT = -.35108E-3
MEAN_MOTION_DDOT = 0

CCSDS_OMM_VERS = 2.0
CREATION_DATE  = 
ORIGINATOR     = 

OBJECT_NAME    = STARLINK-36101
OBJECT_ID      = 2025-281V
CENTER_NAME    = EARTH
REF_FRAME      = TEME
TIME_SYSTEM    = UTC
MEAN_ELEMENT_THEORY = SGP/SGP4

EPOCH          = 2025-12-18T06:00:02.999808
MEAN_MOTION    = 15.74992995
ECCENTRICITY   = .0001529
INCLINATION    = 43.0007
RA_OF_ASC_NODE = 88.4303
ARG_OF_PERICENTER = 283.9279
MEAN_ANOMALY   = 44.5913

EPHEMERIS_TYPE = 0
CLASSIFICATION_TYPE = U
NORAD_CAT_ID   = 66867
ELEMENT_SET_NO = 999
REV_AT_EPOCH   = 212
BSTAR          = .10541952E-2
MEAN_MOTION_DOT = .164316E-2
MEAN_MOTION_DDOT = 0

CCSDS_OMM_VERS = 2.0
CREATION_DATE  = 
ORIGINATOR     = 

OBJECT_NAME    = STARLINK-36108
OBJECT_ID      = 2025-281W
CENTER_NAME    = EARTH
REF_FRAME      = TEME
TIME_SYSTEM    = UTC
MEAN_ELEMENT_THEORY = SGP/SGP4

EPOCH          = 2025-12-18T06:00:02.999808
MEAN_MOTION    = 15.75016828
ECCENTRICITY   = .0001764
INCLINATION    = 43.0005
RA_OF_ASC_NODE = 88.4247
ARG_OF_PERICENTER = 247.9664
MEAN_ANOMALY   = 82.5164

EPHEMERIS_TYPE = 0
CLASSIFICATION_TYPE = U
NORAD_CAT_ID   = 66868
ELEMENT_SET_NO = 999
REV_AT_EPOCH   = 212
BSTAR          = .2997245E-3
MEAN_MOTION_DOT = .45768E-3
MEAN_MOTION_DDOT = 0

CCSDS_OMM_VERS = 2.0
CREATION_DATE  = 
ORIGINATOR     = 

OBJECT_NAME    = STARLINK-36092
OBJECT_ID      = 2025-281X
CENTER_NAME    = EARTH
REF_FRAME      = TEME
TIME_SYSTEM    = UTC
MEAN_ELEMENT_THEORY = SGP/SGP4

EPOCH          = 2025-12-18T06:00:02.999808
MEAN_MOTION    = 15.75122009
ECCENTRICITY   = .00019474
INCLINATION    = 43.0006
RA_OF_ASC_NODE = 88.4195
ARG_OF_PERICENTER = 279.6416
MEAN_ANOMALY   = 52.7110

EPHEMERIS_TYPE = 0
CLASSIFICATION_TYPE = U
NORAD_CAT_ID   = 66869
ELEMENT_SET_NO = 999
REV_AT_EPOCH   = 231
BSTAR          = -.67175805E-3
MEAN_MOTION_DOT = -.102796E-2
MEAN_MOTION_DDOT = 0

CCSDS_OMM_VERS = 2.0
CREATION_DATE  = 
ORIGINATOR     = 

OBJECT_NAME    = STARLINK-36114
OBJECT_ID      = 2025-281Y
CENTER_NAME    = EARTH
REF_FRAME      = TEME
TIME_SYSTEM    = UTC
MEAN_ELEMENT_THEORY = SGP/SGP4

EPOCH          = 2025-12-18T06:00:02.999808
MEAN_MOTION    = 15.75046985
ECCENTRICITY   = .0001984
INCLINATION    = 43.0006
RA_OF_ASC_NODE = 88.4143
ARG_OF_PERICENTER = 265.8962
MEAN_ANOMALY   = 68.4014

EPHEMERIS_TYPE = 0
CLASSIFICATION_TYPE = U
NORAD_CAT_ID   = 66870
ELEMENT_SET_NO = 999
REV_AT_EPOCH   = 218
BSTAR          = -.13312056E-3
MEAN_MOTION_DOT = -.20884E-3
MEAN_MOTION_DDOT = 0

CCSDS_OMM_VERS = 2.0
CREATION_DATE  = 
ORIGINATOR     = 

OBJECT_NAME    = STARLINK-36095
OBJECT_ID      = 2025-281Z
CENTER_NAME    = EARTH
REF_FRAME      = TEME
TIME_SYSTEM    = UTC
MEAN_ELEMENT_THEORY = SGP/SGP4

EPOCH          = 2025-12-18T06:00:02.999808
MEAN_MOTION    = 15.75038459
ECCENTRICITY   = .00014323
INCLINATION    = 43.0006
RA_OF_ASC_NODE = 88.4092
ARG_OF_PERICENTER = 273.9872
MEAN_ANOMALY   = 62.2270

EPHEMERIS_TYPE = 0
CLASSIFICATION_TYPE = U
NORAD_CAT_ID   = 66871
ELEMENT_SET_NO = 999
REV_AT_EPOCH   = 231
BSTAR          = .25728756E-3
MEAN_MOTION_DOT = .39226E-3
MEAN_MOTION_DDOT = 0

CCSDS_OMM_VERS = 2.0
CREATION_DATE  = 
ORIGINATOR     = 

OBJECT_NAME    = STARLINK-36082
OBJECT_ID      = 2025-281AA
CENTER_NAME    = EARTH
REF_FRAME      = TEME
TIME_SYSTEM    = UTC
MEAN_ELEMENT_THEORY = SGP/SGP4

EPOCH          = 2025-12-18T06:00:02.999808
MEAN_MOTION    = 15.75083318
ECCENTRICITY   = .00014091
INCLINATION    = 43.0007
RA_OF_ASC_NODE = 88.4042
ARG_OF_PERICENTER = 266.8292
MEAN_ANOMALY   = 71.2888

EPHEMERIS_TYPE = 0
CLASSIFICATION_TYPE = U
NORAD_CAT_ID   = 66872
ELEMENT_SET_NO = 999
REV_AT_EPOCH   = 218
BSTAR          = -.66197717E-3
MEAN_MOTION_DOT = -.101147E-2
MEAN_MOTION_DDOT = 0

CCSDS_OMM_VERS = 2.0
CREATION_DATE  = 
ORIGINATOR     = 

OBJECT_NAME    = STARLINK-36128
OBJECT_ID      = 2025-281AB
CENTER_NAME    = EARTH
REF_FRAME      = TEME
TIME_SYSTEM    = UTC
MEAN_ELEMENT_THEORY = SGP/SGP4

EPOCH          = 2025-12-18T06:00:02.999808
MEAN_MOTION    = 15.75082565
ECCENTRICITY   = .000184
INCLINATION    = 43.0006
RA_OF_ASC_NODE = 88.3893
ARG_OF_PERICENTER = 258.2876
MEAN_ANOMALY   = 85.5750

EPHEMERIS_TYPE = 0
CLASSIFICATION_TYPE = U
NORAD_CAT_ID   = 66873
ELEMENT_SET_NO = 999
REV_AT_EPOCH   = 231
BSTAR          = -.42941904E-3
MEAN_MOTION_DOT = -.66054E-3
MEAN_MOTION_DDOT = 0

